{
  "type": "FeatureCollection",
  "features": [
    {
      "type": "Feature",
      "properties": {
        "norad_id": 35616,
        "name": "IRIDIUM 33 DEB",
        "group": "iridium-33-debris",
        "lat": -79.40734619163948,
        "lon": -37.02190548662564,
        "alt_km": 636.2484820007567,
        "timestamp": "2025-12-18T23:35:49.447791+00:00",
        "meta_object_name": "IRIDIUM 33 DEB",
        "meta_object_id": "1997-051QN",
        "meta_epoch": "2025-12-18T06:07:57.203616",
        "meta_mean_motion": 14.81951601,
        "meta_eccentricity": 0.00109465,
        "meta_inclination": 86.3538,
        "meta_ra_of_asc_node": 343.2468,
        "meta_arg_of_pericenter": 144.5331,
        "meta_mean_anomaly": 215.6621,
        "meta_ephemeris_type": 0,
        "meta_classification_type": "U",
        "meta_norad_cat_id": 35616,
        "meta_element_set_no": 999,
        "meta_rev_at_epoch": 87656,
        "meta_bstar": 0.0015111725,
        "meta_mean_motion_dot": 0.00012018,
        "meta_mean_motion_ddot": 0,
        "tle_line1": "1 35616U 97051QN  25352.25552319  .00012018  00000+0  15112-2 0  9995",
        "tle_line2": "2 35616  86.3538 343.2468 0010946 144.5331 215.6621 14.81951601876568"
      },
      "geometry": {
        "type": "Point",
        "coordinates": [
          -37.02190548662564,
          -79.40734619163948
        ]
      }
    },
    {
      "type": "Feature",
      "properties": {
        "norad_id": 35618,
        "name": "IRIDIUM 33 DEB",
        "group": "iridium-33-debris",
        "lat": 77.31950375397356,
        "lon": 154.26192519464118,
        "alt_km": 715.0488319744409,
        "timestamp": "2025-12-18T23:35:49.447807+00:00",
        "meta_object_name": "IRIDIUM 33 DEB",
        "meta_object_id": "1997-051QQ",
        "meta_epoch": "2025-12-13T19:06:39.662496",
        "meta_mean_motion": 14.52305973,
        "meta_eccentricity": 0.00288889,
        "meta_inclination": 86.3427,
        "meta_ra_of_asc_node": 353.0427,
        "meta_arg_of_pericenter": 17.6332,
        "meta_mean_anomaly": 342.5869,
        "meta_ephemeris_type": 0,
        "meta_classification_type": "U",
        "meta_norad_cat_id": 35618,
        "meta_element_set_no": 999,
        "meta_rev_at_epoch": 65409,
        "meta_bstar": 0.0005678553,
        "meta_mean_motion_dot": 2.341e-05,
        "meta_mean_motion_ddot": 0,
        "tle_line1": "1 35618U 97051QQ  25347.79629239  .00002341  00000+0  56786-3 0  9997",
        "tle_line2": "2 35618  86.3427 353.0427 0028888  17.6332 342.5869 14.52305973654095"
      },
      "geometry": {
        "type": "Point",
        "coordinates": [
          154.26192519464118,
          77.31950375397356
        ]
      }
    },
    {
      "type": "Feature",
      "properties": {
        "norad_id": 35620,
        "name": "IRIDIUM 33 DEB",
        "group": "iridium-33-debris",
        "lat": 54.463120925945304,
        "lon": 29.75093776468158,
        "alt_km": 796.8636903000142,
        "timestamp": "2025-12-18T23:35:49.447823+00:00",
        "meta_object_name": "IRIDIUM 33 DEB",
        "meta_object_id": "1997-051QS",
        "meta_epoch": "2025-12-18T07:58:30.597312",
        "meta_mean_motion": 14.38231155,
        "meta_eccentricity": 0.01396071,
        "meta_inclination": 86.3909,
        "meta_ra_of_asc_node": 215.0948,
        "meta_arg_of_pericenter": 240.37,
        "meta_mean_anomaly": 118.3533,
        "meta_ephemeris_type": 0,
        "meta_classification_type": "U",
        "meta_norad_cat_id": 35620,
        "meta_element_set_no": 999,
        "meta_rev_at_epoch": 60046,
        "meta_bstar": 0.0042608437,
        "meta_mean_motion_dot": 0.00014532,
        "meta_mean_motion_ddot": 0,
        "tle_line1": "1 35620U 97051QS  25352.33229858  .00014532  00000+0  42608-2 0  9991",
        "tle_line2": "2 35620  86.3909 215.0948 0139607 240.3700 118.3533 14.38231155600467"
      },
      "geometry": {
        "type": "Point",
        "coordinates": [
          29.75093776468158,
          54.463120925945304
        ]
      }
    },
    {
      "type": "Feature",
      "properties": {
        "norad_id": 35622,
        "name": "IRIDIUM 33 DEB",
        "group": "iridium-33-debris",
        "lat": -83.09910402734188,
        "lon": -132.7561159239647,
        "alt_km": 553.8353861212445,
        "timestamp": "2025-12-18T23:35:49.447843+00:00",
        "meta_object_name": "IRIDIUM 33 DEB",
        "meta_object_id": "1997-051QU",
        "meta_epoch": "2025-12-14T12:14:43.972224",
        "meta_mean_motion": 15.04969242,
        "meta_eccentricity": 0.00054886,
        "meta_inclination": 86.2028,
        "meta_ra_of_asc_node": 262.7313,
        "meta_arg_of_pericenter": 323.1514,
        "meta_mean_anomaly": 209.8665,
        "meta_ephemeris_type": 0,
        "meta_classification_type": "U",
        "meta_norad_cat_id": 35622,
        "meta_element_set_no": 999,
        "meta_rev_at_epoch": 87386,
        "meta_bstar": 0.0048535985,
        "meta_mean_motion_dot": 0.00069411,
        "meta_mean_motion_ddot": 0,
        "tle_line1": "1 35622U 97051QU  25348.51023116  .00069411  00000+0  48536-2 0  9999",
        "tle_line2": "2 35622  86.2028 262.7313 0005488 323.1514 209.8665 15.04969242873864"
      },
      "geometry": {
        "type": "Point",
        "coordinates": [
          -132.7561159239647,
          -83.09910402734188
        ]
      }
    },
    {
      "type": "Feature",
      "properties": {
        "norad_id": 35628,
        "name": "IRIDIUM 33 DEB",
        "group": "iridium-33-debris",
        "lat": -17.290943733119725,
        "lon": 5.154634128495226,
        "alt_km": 667.1842303543281,
        "timestamp": "2025-12-18T23:35:49.447858+00:00",
        "meta_object_name": "IRIDIUM 33 DEB",
        "meta_object_id": "1997-051RA",
        "meta_epoch": "2025-12-18T07:18:45.213408",
        "meta_mean_motion": 14.6766102,
        "meta_eccentricity": 0.00098417,
        "meta_inclination": 86.3567,
        "meta_ra_of_asc_node": 6.5937,
        "meta_arg_of_pericenter": 321.9777,
        "meta_mean_anomaly": 38.0742,
        "meta_ephemeris_type": 0,
        "meta_classification_type": "U",
        "meta_norad_cat_id": 35628,
        "meta_element_set_no": 999,
        "meta_rev_at_epoch": 86528,
        "meta_bstar": 0.0011340632,
        "meta_mean_motion_dot": 6.475e-05,
        "meta_mean_motion_ddot": 0,
        "tle_line1": "1 35628U 97051RA  25352.30468997  .00006475  00000+0  11341-2 0  9992",
        "tle_line2": "2 35628  86.3567   6.5937 0009841 321.9777  38.0742 14.67661020865285"
      },
      "geometry": {
        "type": "Point",
        "coordinates": [
          5.154634128495226,
          -17.290943733119725
        ]
      }
    },
    {
      "type": "Feature",
      "properties": {
        "norad_id": 35631,
        "name": "IRIDIUM 33 DEB",
        "group": "iridium-33-debris",
        "lat": 36.648807134227454,
        "lon": -164.42165701606797,
        "alt_km": 722.1703729722913,
        "timestamp": "2025-12-18T23:35:49.447870+00:00",
        "meta_object_name": "IRIDIUM 33 DEB",
        "meta_object_id": "1997-051RD",
        "meta_epoch": "2025-12-17T02:23:33.513216",
        "meta_mean_motion": 14.47323174,
        "meta_eccentricity": 0.00191499,
        "meta_inclination": 86.3669,
        "meta_ra_of_asc_node": 19.0985,
        "meta_arg_of_pericenter": 104.9158,
        "meta_mean_anomaly": 310.5558,
        "meta_ephemeris_type": 0,
        "meta_classification_type": "U",
        "meta_norad_cat_id": 35631,
        "meta_element_set_no": 999,
        "meta_rev_at_epoch": 87260,
        "meta_bstar": 0.00028519596,
        "meta_mean_motion_dot": 1.066e-05,
        "meta_mean_motion_ddot": 0,
        "tle_line1": "1 35631U 97051RD  25351.09969344  .00001066  00000+0  28520-3 0  9992",
        "tle_line2": "2 35631  86.3669  19.0985 0019149 104.9158 310.5558 14.47323174872608"
      },
      "geometry": {
        "type": "Point",
        "coordinates": [
          -164.42165701606797,
          36.648807134227454
        ]
      }
    },
    {
      "type": "Feature",
      "properties": {
        "norad_id": 35680,
        "name": "IRIDIUM 33 DEB",
        "group": "iridium-33-debris",
        "lat": -61.94684594639646,
        "lon": -153.89154166247357,
        "alt_km": 725.0805952782966,
        "timestamp": "2025-12-18T23:35:49.447881+00:00",
        "meta_object_name": "IRIDIUM 33 DEB",
        "meta_object_id": "1997-051RJ",
        "meta_epoch": "2025-12-17T20:16:19.922592",
        "meta_mean_motion": 14.21000805,
        "meta_eccentricity": 0.01505036,
        "meta_inclination": 86.1025,
        "meta_ra_of_asc_node": 19.2625,
        "meta_arg_of_pericenter": 262.1515,
        "meta_mean_anomaly": 279.7609,
        "meta_ephemeris_type": 0,
        "meta_classification_type": "U",
        "meta_norad_cat_id": 35680,
        "meta_element_set_no": 999,
        "meta_rev_at_epoch": 60773,
        "meta_bstar": 0.0028027984,
        "meta_mean_motion_dot": 6.829e-05,
        "meta_mean_motion_ddot": 0,
        "tle_line1": "1 35680U 97051RJ  25351.84467503  .00006829  00000+0  28028-2 0  9993",
        "tle_line2": "2 35680  86.1025  19.2625 0150503 262.1515 279.7609 14.21000805607731"
      },
      "geometry": {
        "type": "Point",
        "coordinates": [
          -153.89154166247357,
          -61.94684594639646
        ]
      }
    }
  ]
}